start=new Date('2022-03-27T00:00:00.000Z').valueOf();
sats=[{"MEAN_MOTION_DOT":"0.00000387","PERIOD":"95.593","RA_OF_ASC_NODE":"23.2643","DECAY_DATE":null,"REV_AT_EPOCH":"6317","NORAD_CAT_ID":"47585","RCS_SIZE":"LARGE","CENTER_NAME":"EARTH","ARG_OF_PERICENTER":"40.5126","TLE_LINE1":"1 47585U 21009AP  22085.85110802  .00000387  00000-0  44883-4 0  9992","SITE":"AFETR","REF_FRAME":"TEME","INCLINATION":"53.0571","MEAN_MOTION_DDOT":"0.0000000000000","EPOCH":"2022-03-26T20:25:35.732928","GP_ID":"199778763","OBJECT_NAME":"STARLINK-1989","MEAN_MOTION":"15.06392381","ECCENTRICITY":"0.00024280","MEAN_ELEMENT_THEORY":"SGP4","ELEMENT_SET_NO":"999","TIME_SYSTEM":"UTC","CLASSIFICATION_TYPE":"U","COUNTRY_CODE":"US","TLE_LINE2":"2 47585  53.0571  23.2643 0002428  40.5126 319.6044 15.06392381 63178","LAUNCH_DATE":"2021-02-04","OBJECT_ID":"2021-009AP","MEAN_ANOMALY":"319.6044","OBJECT_TYPE":"PAYLOAD","APOAPSIS":"548.918","PERIAPSIS":"545.555","FILE":"3375650","BSTAR":"0.00004488300000","EPHEMERIS_TYPE":"0","SEMIMAJOR_AXIS":"6925.372"},{"CLASSIFICATION_TYPE":"U","TIME_SYSTEM":"UTC","COUNTRY_CODE":"US","OBJECT_ID":"2021-009AQ","LAUNCH_DATE":"2021-02-04","TLE_LINE2":"2 47586  53.0569  43.0378 0001941  52.3939 307.7226 15.06391470 62901","PERIAPSIS":"545.895","APOAPSIS":"548.584","OBJECT_TYPE":"PAYLOAD","MEAN_ANOMALY":"307.7226","FILE":"3375650","BSTAR":"-0.00000670570000","SEMIMAJOR_AXIS":"6925.375","EPHEMERIS_TYPE":"0","NORAD_CAT_ID":"47586","REV_AT_EPOCH":"6290","DECAY_DATE":null,"RA_OF_ASC_NODE":"43.0378","PERIOD":"95.593","MEAN_MOTION_DOT":"-0.00000382","TLE_LINE1":"1 47586U 21009AQ  22085.90086825 -.00000382  00000-0 -67057-5 0  9992","ARG_OF_PERICENTER":"52.3939","CENTER_NAME":"EARTH","RCS_SIZE":"LARGE","INCLINATION":"53.0569","SITE":"AFETR","REF_FRAME":"TEME","OBJECT_NAME":"STARLINK-1990","GP_ID":"199779514","EPOCH":"2022-03-26T21:37:15.016800","MEAN_MOTION_DDOT":"0.0000000000000","MEAN_MOTION":"15.06391470","MEAN_ELEMENT_THEORY":"SGP4","ECCENTRICITY":"0.00019410","ELEMENT_SET_NO":"999"},{"APOAPSIS":"548.452","PERIAPSIS":"546.010","OBJECT_TYPE":"PAYLOAD","MEAN_ANOMALY":"292.6217","SEMIMAJOR_AXIS":"6925.366","EPHEMERIS_TYPE":"0","FILE":"3375254","BSTAR":"0.00027268000000","COUNTRY_CODE":"US","CLASSIFICATION_TYPE":"U","TIME_SYSTEM":"UTC","OBJECT_ID":"2021-009AR","LAUNCH_DATE":"2021-02-04","TLE_LINE2":"2 47587  53.0547  14.8592 0001763  67.4959 292.6217 15.06394327 63269","MEAN_MOTION":"15.06394327","ELEMENT_SET_NO":"999","ECCENTRICITY":"0.00017630","MEAN_ELEMENT_THEORY":"SGP4","TLE_LINE1":"1 47587U 21009AR  22085.49817861  .00003782  00000-0  27268-3 0  9992","ARG_OF_PERICENTER":"67.4959","CENTER_NAME":"EARTH","RCS_SIZE":"LARGE","NORAD_CAT_ID":"47587","DECAY_DATE":null,"REV_AT_EPOCH":"6326","RA_OF_ASC_NODE":"14.8592","PERIOD":"95.593","MEAN_MOTION_DOT":"0.00003782","OBJECT_NAME":"STARLINK-1991","GP_ID":"199745819","EPOCH":"2022-03-26T11:57:22.631904","MEAN_MOTION_DDOT":"0.0000000000000","INCLINATION":"53.0547","REF_FRAME":"TEME","SITE":"AFETR"},{"TLE_LINE2":"2 47588  53.0558  23.3886 0001715  57.0747 303.0407 15.06406834 63175","OBJECT_ID":"2021-009AS","LAUNCH_DATE":"2021-02-04","CLASSIFICATION_TYPE":"U","TIME_SYSTEM":"UTC","COUNTRY_CODE":"US","FILE":"3375650","BSTAR":"-0.00017506000000","EPHEMERIS_TYPE":"0","SEMIMAJOR_AXIS":"6925.328","OBJECT_TYPE":"PAYLOAD","PERIAPSIS":"546.005","APOAPSIS":"548.380","MEAN_ANOMALY":"303.0407","SITE":"AFETR","REF_FRAME":"TEME","INCLINATION":"53.0558","GP_ID":"199780516","EPOCH":"2022-03-26T19:43:07.354560","OBJECT_NAME":"STARLINK-1993","MEAN_MOTION_DDOT":"0.0000000000000","NORAD_CAT_ID":"47588","RA_OF_ASC_NODE":"23.3886","PERIOD":"95.592","MEAN_MOTION_DOT":"-0.00002889","REV_AT_EPOCH":"6317","DECAY_DATE":null,"ARG_OF_PERICENTER":"57.0747","TLE_LINE1":"1 47588U 21009AS  22085.82161290 -.00002889  00000-0 -17506-3 0  9991","RCS_SIZE":"LARGE","CENTER_NAME":"EARTH","ECCENTRICITY":"0.00017150","MEAN_ELEMENT_THEORY":"SGP4","ELEMENT_SET_NO":"999","MEAN_MOTION":"15.06406834"},{"CLASSIFICATION_TYPE":"U","TIME_SYSTEM":"UTC","COUNTRY_CODE":"US","TLE_LINE2":"2 47589  53.0555  23.3232 0001785  57.2790 302.8370 15.06403471 63175","LAUNCH_DATE":"2021-02-04","OBJECT_ID":"2021-009AT","OBJECT_TYPE":"PAYLOAD","APOAPSIS":"548.439","PERIAPSIS":"545.967","MEAN_ANOMALY":"302.8370","BSTAR":"0.00005683800000","FILE":"3375650","EPHEMERIS_TYPE":"0","SEMIMAJOR_AXIS":"6925.338","NORAD_CAT_ID":"47589","PERIOD":"95.592","RA_OF_ASC_NODE":"23.3232","MEAN_MOTION_DOT":"0.00000565","DECAY_DATE":null,"REV_AT_EPOCH":"6317","ARG_OF_PERICENTER":"57.2790","TLE_LINE1":"1 47589U 21009AT  22085.84004208  .00000565  00000-0  56838-4 0  9998","RCS_SIZE":"LARGE","CENTER_NAME":"EARTH","SITE":"AFETR","REF_FRAME":"TEME","INCLINATION":"53.0555","EPOCH":"2022-03-26T20:09:39.635712","GP_ID":"199779264","OBJECT_NAME":"STARLINK-1994","MEAN_MOTION_DDOT":"0.0000000000000","MEAN_MOTION":"15.06403471","ECCENTRICITY":"0.00017850","MEAN_ELEMENT_THEORY":"SGP4","ELEMENT_SET_NO":"999"},{"COUNTRY_CODE":"US","TIME_SYSTEM":"UTC","CLASSIFICATION_TYPE":"U","TLE_LINE2":"2 47590  53.0562  43.0597 0002111  52.1963 307.9217 15.06398983 62905","OBJECT_ID":"2021-009AU","LAUNCH_DATE":"2021-02-04","MEAN_ANOMALY":"307.9217","OBJECT_TYPE":"PAYLOAD","APOAPSIS":"548.679","PERIAPSIS":"545.755","EPHEMERIS_TYPE":"0","SEMIMAJOR_AXIS":"6925.352","BSTAR":"0.00017456000000","FILE":"3375650","RCS_SIZE":"LARGE","CENTER_NAME":"EARTH","ARG_OF_PERICENTER":"52.1963","TLE_LINE1":"1 47590U 21009AU  22085.89718157  .00002319  00000-0  17456-3 0  9991","PERIOD":"95.592","RA_OF_ASC_NODE":"43.0597","MEAN_MOTION_DOT":"0.00002319","REV_AT_EPOCH":"6290","DECAY_DATE":null,"NORAD_CAT_ID":"47590","MEAN_MOTION_DDOT":"0.0000000000000","EPOCH":"2022-03-26T21:31:56.487648","GP_ID":"199779014","OBJECT_NAME":"STARLINK-1995","SITE":"AFETR","REF_FRAME":"TEME","INCLINATION":"53.0562","MEAN_MOTION":"15.06398983","ELEMENT_SET_NO":"999","MEAN_ELEMENT_THEORY":"SGP4","ECCENTRICITY":"0.00021110"},{"ECCENTRICITY":"0.00018760","MEAN_ELEMENT_THEORY":"SGP4","ELEMENT_SET_NO":"999","MEAN_MOTION":"15.06399178","INCLINATION":"53.0570","SITE":"AFETR","REF_FRAME":"TEME","MEAN_MOTION_DDOT":"0.0000000000000","OBJECT_NAME":"STARLINK-1996","EPOCH":"2022-03-26T20:04:21.667296","GP_ID":"199780266","REV_AT_EPOCH":"6317","DECAY_DATE":null,"RA_OF_ASC_NODE":"23.3361","PERIOD":"95.592","MEAN_MOTION_DOT":"0.00000881","NORAD_CAT_ID":"47591","CENTER_NAME":"EARTH","RCS_SIZE":"LARGE","TLE_LINE1":"1 47591U 21009AV  22085.83636189  .00000881  00000-0  78063-4 0  9994","ARG_OF_PERICENTER":"52.0755","FILE":"3375650","BSTAR":"0.00007806300000","SEMIMAJOR_AXIS":"6925.351","EPHEMERIS_TYPE":"0","MEAN_ANOMALY":"308.0404","PERIAPSIS":"545.917","APOAPSIS":"548.515","OBJECT_TYPE":"PAYLOAD","OBJECT_ID":"2021-009AV","LAUNCH_DATE":"2021-02-04","TLE_LINE2":"2 47591  53.0570  23.3361 0001876  52.0755 308.0404 15.06399178 63177","TIME_SYSTEM":"UTC","CLASSIFICATION_TYPE":"U","COUNTRY_CODE":"US"},{"MEAN_MOTION":"15.06397669","ELEMENT_SET_NO":"999","MEAN_ELEMENT_THEORY":"SGP4","ECCENTRICITY":"0.00015720","ARG_OF_PERICENTER":"59.8406","TLE_LINE1":"1 47592U 21009AW  22085.86768581  .00000910  00000-0  80003-4 0  9990","RCS_SIZE":"LARGE","CENTER_NAME":"EARTH","NORAD_CAT_ID":"47592","PERIOD":"95.592","RA_OF_ASC_NODE":"43.1959","MEAN_MOTION_DOT":"0.00000910","DECAY_DATE":null,"REV_AT_EPOCH":"6289","EPOCH":"2022-03-26T20:49:28.053984","GP_ID":"199780016","OBJECT_NAME":"STARLINK-1997","MEAN_MOTION_DDOT":"0.0000000000000","SITE":"AFETR","REF_FRAME":"TEME","INCLINATION":"53.0557","OBJECT_TYPE":"PAYLOAD","PERIAPSIS":"546.132","APOAPSIS":"548.309","MEAN_ANOMALY":"300.2739","EPHEMERIS_TYPE":"0","SEMIMAJOR_AXIS":"6925.356","BSTAR":"0.00008000300000","FILE":"3375650","COUNTRY_CODE":"US","CLASSIFICATION_TYPE":"U","TIME_SYSTEM":"UTC","TLE_LINE2":"2 47592  53.0557  43.1959 0001572  59.8406 300.2739 15.06397669 62893","OBJECT_ID":"2021-009AW","LAUNCH_DATE":"2021-02-04"},{"OBJECT_ID":"2021-009AX","LAUNCH_DATE":"2021-02-04","TLE_LINE2":"2 47593  53.0552  43.0163 0002102  44.8629 315.2530 15.06399509 62908","CLASSIFICATION_TYPE":"U","TIME_SYSTEM":"UTC","COUNTRY_CODE":"US","FILE":"3375650","BSTAR":"0.00011352000000","SEMIMAJOR_AXIS":"6925.350","EPHEMERIS_TYPE":"0","PERIAPSIS":"545.759","APOAPSIS":"548.671","OBJECT_TYPE":"PAYLOAD","MEAN_ANOMALY":"315.2530","INCLINATION":"53.0552","REF_FRAME":"TEME","SITE":"AFETR","OBJECT_NAME":"STARLINK-1998","GP_ID":"199778764","EPOCH":"2022-03-26T21:42:33.208128","MEAN_MOTION_DDOT":"0.0000000000000","NORAD_CAT_ID":"47593","DECAY_DATE":null,"REV_AT_EPOCH":"6290","RA_OF_ASC_NODE":"43.0163","PERIOD":"95.592","MEAN_MOTION_DOT":"0.00001410","TLE_LINE1":"1 47593U 21009AX  22085.90455102  .00001410  00000-0  11352-3 0  9994","ARG_OF_PERICENTER":"44.8629","CENTER_NAME":"EARTH","RCS_SIZE":"LARGE","ECCENTRICITY":"0.00021020","MEAN_ELEMENT_THEORY":"SGP4","ELEMENT_SET_NO":"999","MEAN_MOTION":"15.06399509"},{"TLE_LINE2":"2 47594  53.0551  43.1807 0001919  52.8510 307.2654 15.06395968 62898","LAUNCH_DATE":"2021-02-04","OBJECT_ID":"2021-009AY","COUNTRY_CODE":"US","CLASSIFICATION_TYPE":"U","TIME_SYSTEM":"UTC","EPHEMERIS_TYPE":"0","SEMIMAJOR_AXIS":"6925.361","BSTAR":"0.00004397600000","FILE":"3375650","OBJECT_TYPE":"PAYLOAD","APOAPSIS":"548.555","PERIAPSIS":"545.897","MEAN_ANOMALY":"307.2654","EPOCH":"2022-03-26T20:54:47.238048","GP_ID":"199779515","OBJECT_NAME":"STARLINK-1999","MEAN_MOTION_DDOT":"0.0000000000000","REF_FRAME":"TEME","SITE":"AFETR","INCLINATION":"53.0551","ARG_OF_PERICENTER":"52.8510","TLE_LINE1":"1 47594U 21009AY  22085.87138007  .00000373  00000-0  43976-4 0  9998","RCS_SIZE":"LARGE","CENTER_NAME":"EARTH","NORAD_CAT_ID":"47594","RA_OF_ASC_NODE":"43.1807","PERIOD":"95.592","MEAN_MOTION_DOT":"0.00000373","DECAY_DATE":null,"REV_AT_EPOCH":"6289","ELEMENT_SET_NO":"999","ECCENTRICITY":"0.00019190","MEAN_ELEMENT_THEORY":"SGP4","MEAN_MOTION":"15.06395968"}];
